{"type": "FeatureCollection", "features": [ {"type": "Feature", "properties": {"norad_id": 31226, "name": "FENGYUN 1C DEB", "group": "fengyun-1c-debris", "lat": -62.32894791214091, "lon": 155.8628298123273, "alt_km": 769.992557068027, "timestamp": "2025-12-18T13:51:49.965095+00:00", "meta": {"OBJECT_NAME": "FENGYUN 1C DEB", "OBJECT_ID": "1999-025BLG", "EPOCH": "2025-12-17T06:26:05.828928", "MEAN_MOTION": 14.2670123, "ECCENTRICITY": 0.01270359, "INCLINATION": 98.3503, "RA_OF_ASC_NODE": 350.8791, "ARG_OF_PERICENTER": 182.6246, "MEAN_ANOMALY": 177.4284, "EPHEMERIS_TYPE": 0, "CLASSIFICATION_TYPE": "U", "NORAD_CAT_ID": 31226, "ELEMENT_SET_NO": 999, "REV_AT_EPOCH": 62118, "BSTAR": 0.0003027873, "MEAN_MOTION_DOT": 7.56e-06, "MEAN_MOTION_DDOT": 0}, "tle": {"line1": "1 31226U 99025BLG 25351.26812302  .00000756  00000+0  30279-3 0  9990", "line2": "2 31226  98.3503 350.8791 0127035 182.6246 177.4284 14.26701230621181"}}, "geometry": {"type": "Point", "coordinates": [155.8628298123273, -62.32894791214091]}}, {"type": "Feature", "properties": {"norad_id": 31228, "name": "FENGYUN 1C DEB", "group": "fengyun-1c-debris", "lat": 81.12387176577873, "lon": 175.28595694502394, "alt_km": 708.124694688695, "timestamp": "2025-12-18T13:51:49.965105+00:00", "meta": {"OBJECT_NAME": "FENGYUN 1C DEB", "OBJECT_ID": "1999-025BLJ", "EPOCH": "2025-12-18T05:47:37.144032", "MEAN_MOTION": 14.36936285, "ECCENTRICITY": 0.00793664, "INCLINATION": 98.8698, "RA_OF_ASC_NODE": 264.2257, "ARG_OF_PERICENTER": 69.958, "MEAN_ANOMALY": 81.1392, "EPHEMERIS_TYPE": 0, "CLASSIFICATION_TYPE": "U", "NORAD_CAT_ID": 31228, "ELEMENT_SET_NO": 999, "REV_AT_EPOCH": 97648, "BSTAR": 0.00041518085, "MEAN_MOTION_DOT": 1.227e-05, "MEAN_MOTION_DDOT": 0}, "tle": {"line1": "1 31228U 99025BLJ 25352.24140213  .00001227  00000+0  41518-3 0  9998", "line2": "2 31228  98.8698 264.2257 0079366  69.9580  81.1392 14.36936285976487"}}, "geometry": {"type": "Point", "coordinates": [175.28595694502394, 81.12387176577873]}}, {"type": "Feature", "properties": {"norad_id": 31229, "name": "FENGYUN 1C DEB", "group": "fengyun-1c-debris", "lat": -68.65639918782449, "lon": 91.46868662566779, "alt_km": 788.2758721320379, "timestamp": "2025-12-18T13:51:49.965116+00:00", "meta": {"OBJECT_NAME": "FENGYUN 1C DEB", "OBJECT_ID": "1999-025BLK", "EPOCH": "2025-12-18T04:03:33.676128", "MEAN_MOTION": 14.21851961, "ECCENTRICITY": 0.00536375, "INCLINATION": 98.8686, "RA_OF_ASC_NODE": 67.5072, "ARG_OF_PERICENTER": 280.847, "MEAN_ANOMALY": 78.6673, "EPHEMERIS_TYPE": 0, "CLASSIFICATION_TYPE": "U", "NORAD_CAT_ID": 31229, "ELEMENT_SET_NO": 999, "REV_AT_EPOCH": 96161, "BSTAR": 0.0011475538, "MEAN_MOTION_DOT": 2.52e-05, "MEAN_MOTION_DDOT": 0}, "tle": {"line1": "1 31229U 99025BLK 25352.16913977  .00002520  00000+0  11476-2 0  9991", "line2": "2 31229  98.8686  67.5072 0053637 280.8470  78.6673 14.21851961961612"}}, "geometry": {"type": "Point", "coordinates": [91.46868662566779, -68.65639918782449]}}, {"type": "Feature", "properties": {"norad_id": 31231, "name": "FENGYUN 1C DEB", "group": "fengyun-1c-debris", "lat": -6.184307981115008, "lon": 153.24402821696617, "alt_km": 652.1151964698201, "timestamp": "2025-12-18T13:51:49.965126+00:00", "meta": {"OBJECT_NAME": "FENGYUN 1C DEB", "OBJECT_ID": "1999-025BLM", "EPOCH": "2025-12-15T04:31:52.176576", "MEAN_MOTION": 14.75732437, "ECCENTRICITY": 0.01455115, "INCLINATION": 98.8603, "RA_OF_ASC_NODE": 148.5632, "ARG_OF_PERICENTER": 98.5999, "MEAN_ANOMALY": 263.1725, "EPHEMERIS_TYPE": 0, "CLASSIFICATION_TYPE": "U", "NORAD_CAT_ID": 31231, "ELEMENT_SET_NO": 999, "REV_AT_EPOCH": 63057, "BSTAR": 0.0017470696, "MEAN_MOTION_DOT": 0.00014172, "MEAN_MOTION_DDOT": 0}, "tle": {"line1": "1 31231U 99025BLM 25349.18879834  .00014172  00000+0  17471-2 0  9992", "line2": "2 31231  98.8603 148.5632 0145511  98.5999 263.1725 14.75732437630571"}}, "geometry": {"type": "Point", "coordinates": [153.24402821696617, -6.184307981115008]}}, {"type": "Feature", "properties": {"norad_id": 31234, "name": "FENGYUN 1C DEB", "group": "fengyun-1c-debris", "lat": -34.20170970439134, "lon": -7.541946291877072, "alt_km": 894.5473507389561, "timestamp": "2025-12-18T13:51:49.965137+00:00", "meta": {"OBJECT_NAME": "FENGYUN 1C DEB", "OBJECT_ID": "1999-025BLQ", "EPOCH": "2025-12-17T05:37:32.355264", "MEAN_MOTION": 14.08020495, "ECCENTRICITY": 0.00732639, "INCLINATION": 98.7843, "RA_OF_ASC_NODE": 345.1186, "ARG_OF_PERICENTER": 214.0542, "MEAN_ANOMALY": 145.5915, "EPHEMERIS_TYPE": 0, "CLASSIFICATION_TYPE": "U", "NORAD_CAT_ID": 31234, "ELEMENT_SET_NO": 999, "REV_AT_EPOCH": 72783, "BSTAR": 0.0001535591, "MEAN_MOTION_DOT": 2.25e-06, "MEAN_MOTION_DDOT": 0}, "tle": {"line1": "1 31234U 99025BLQ 25351.23440226  .00000225  00000+0  15356-3 0  9998", "line2": "2 31234  98.7843 345.1186 0073263 214.0542 145.5915 14.08020495727831"}}, "geometry": {"type": "Point", "coordinates": [-7.541946291877072, -34.20170970439134]}}, {"type": "Feature", "properties": {"norad_id": 31235, "name": "FENGYUN 1C DEB", "group": "fengyun-1c-debris", "lat": 7.801598193374108, "lon": -38.24440842775525, "alt_km": 957.7297719575045, "timestamp": "2025-12-18T13:51:49.965147+00:00", "meta": {"OBJECT_NAME": "FENGYUN 1C DEB", "OBJECT_ID": "1999-025BLR", "EPOCH": "2025-12-17T03:12:21.896928", "MEAN_MOTION": 14.18676374, "ECCENTRICITY": 0.01797032, "INCLINATION": 98.4672, "RA_OF_ASC_NODE": 139.2065, "ARG_OF_PERICENTER": 9.163, "MEAN_ANOMALY": 351.2754, "EPHEMERIS_TYPE": 0, "CLASSIFICATION_TYPE": "U", "NORAD_CAT_ID": 31235, "ELEMENT_SET_NO": 999, "REV_AT_EPOCH": 63229, "BSTAR": 0.0023921437, "MEAN_MOTION_DOT": 5.786e-05, "MEAN_MOTION_DDOT": 0}, "tle": {"line1": "1 31235U 99025BLR 25351.13358677  .00005786  00000+0  23921-2 0  9999", "line2": "2 31235  98.4672 139.2065 0179703   9.1630 351.2754 14.18676374632290"}}, "geometry": {"type": "Point", "coordinates": [-38.24440842775525, 7.801598193374108]}}, {"type": "Feature", "properties": {"norad_id": 31236, "name": "FENGYUN 1C DEB", "group": "fengyun-1c-debris", "lat": 75.56967714837151, "lon": -88.45135362068365, "alt_km": 776.1526771365252, "timestamp": "2025-12-18T13:51:49.965158+00:00", "meta": {"OBJECT_NAME": "FENGYUN 1C DEB", "OBJECT_ID": "1999-025BLS", "EPOCH": "2025-12-17T14:59:05.453088", "MEAN_MOTION": 13.85915823, "ECCENTRICITY": 0.03148984, "INCLINATION": 98.5449, "RA_OF_ASC_NODE": 306.4287, "ARG_OF_PERICENTER": 33.45, "MEAN_ANOMALY": 328.612, "EPHEMERIS_TYPE": 0, "CLASSIFICATION_TYPE": "U", "NORAD_CAT_ID": 31236, "ELEMENT_SET_NO": 999, "REV_AT_EPOCH": 61092, "BSTAR": 0.0042154512, "MEAN_MOTION_DOT": 7.112e-05, "MEAN_MOTION_DDOT": 0}, "tle": {"line1": "1 31236U 99025BLS 25351.62436867  .00007112  00000+0  42155-2 0  9997", "line2": "2 31236  98.5449 306.4287 0314898  33.4500 328.6120 13.85915823610929"}}, "geometry": {"type": "Point", "coordinates": [-88.45135362068365, 75.56967714837151]}}, {"type": "Feature", "properties": {"norad_id": 31237, "name": "FENGYUN 1C DEB", "group": "fengyun-1c-debris", "lat": -57.59178865892896, "lon": 157.73771035532087, "alt_km": 797.0278961484009, "timestamp": "2025-12-18T13:51:49.965168+00:00", "meta": {"OBJECT_NAME": "FENGYUN 1C DEB", "OBJECT_ID": "1999-025BLT", "EPOCH": "2025-12-17T18:17:31.455168", "MEAN_MOTION": 14.31405488, "ECCENTRICITY": 0.00886862, "INCLINATION": 98.4532, "RA_OF_ASC_NODE": 350.4918, "ARG_OF_PERICENTER": 334.0898, "MEAN_ANOMALY": 25.5858, "EPHEMERIS_TYPE": 0, "CLASSIFICATION_TYPE": "U", "NORAD_CAT_ID": 31237, "ELEMENT_SET_NO": 999, "REV_AT_EPOCH": 97338, "BSTAR": 0.00047367421, "MEAN_MOTION_DOT": 1.268e-05, "MEAN_MOTION_DDOT": 0}, "tle": {"line1": "1 31237U 99025BLT 25351.76216962  .00001268  00000+0  47367-3 0  9992", "line2": "2 31237  98.4532 350.4918 0088686 334.0898  25.5858 14.31405488973381"}}, "geometry": {"type": "Point", "coordinates": [157.73771035532087, -57.59178865892896]}}, {"type": "Feature", "properties": {"norad_id": 31239, "name": "FENGYUN 1C DEB", "group": "fengyun-1c-debris", "lat": -18.62679924098817, "lon": -9.659298492910775, "alt_km": 898.4390233146005, "timestamp": "2025-12-18T13:51:49.965178+00:00", "meta": {"OBJECT_NAME": "FENGYUN 1C DEB", "OBJECT_ID": "1999-025BLV", "EPOCH": "2025-12-17T22:45:52.668000", "MEAN_MOTION": 14.09868444, "ECCENTRICITY": 0.00495401, "INCLINATION": 98.758, "RA_OF_ASC_NODE": 346.7501, "ARG_OF_PERICENTER": 183.221, "MEAN_ANOMALY": 206.4272, "EPHEMERIS_TYPE": 0, "CLASSIFICATION_TYPE": "U", "NORAD_CAT_ID": 31239, "ELEMENT_SET_NO": 999, "REV_AT_EPOCH": 96085, "BSTAR": 0.00029774061, "MEAN_MOTION_DOT": 4.87e-06, "MEAN_MOTION_DDOT": 0}, "tle": {"line1": "1 31239U 99025BLV 25351.94852625  .00000487  00000+0  29774-3 0  9990", "line2": "2 31239  98.7580 346.7501 0049540 183.2210 206.4272 14.09868444960851"}}, "geometry": {"type": "Point", "coordinates": [-9.659298492910775, -18.62679924098817]}}, {"type": "Feature", "properties": {"norad_id": 31241, "name": "FENGYUN 1C DEB", "group": "fengyun-1c-debris", "lat": -59.05644130444903, "lon": -55.90665760165313, "alt_km": 758.1597322863881, "timestamp": "2025-12-18T13:51:49.965188+00:00", "meta": {"OBJECT_NAME": "FENGYUN 1C DEB", "OBJECT_ID": "1999-025BLX", "EPOCH": "2025-12-14T08:36:30.410784", "MEAN_MOTION": 14.38706808, "ECCENTRICITY": 0.00668387, "INCLINATION": 99.2333, "RA_OF_ASC_NODE": 135.3007, "ARG_OF_PERICENTER": 176.3169, "MEAN_ANOMALY": 183.8522, "EPHEMERIS_TYPE": 0, "CLASSIFICATION_TYPE": "U", "NORAD_CAT_ID": 31241, "ELEMENT_SET_NO": 999, "REV_AT_EPOCH": 97714, "BSTAR": 0.00079512814, "MEAN_MOTION_DOT": 2.454e-05, "MEAN_MOTION_DDOT": 0}, "tle": {"line1": "1 31241U 99025BLX 25348.35868531  .00002454  00000+0  79513-3 0  9999", "line2": "2 31241  99.2333 135.3007 0066838 176.3169 183.8522 14.38706808977147"}}, "geometry": {"type": "Point", "coordinates": [-55.90665760165313, -59.05644130444903]}}]}